     3.00           NAVIGATION DATA     M (Mixed)           RINEX VERSION / TYPE
Bnx2Rnx             ldccut              20140215 010003 GMT PGM / RUN BY / DATE 
Source CUTA2014021424.BNX                                   COMMENT             
                                                            END OF HEADER       
C05 2014 02 14 12 00 00-8.001881651580e-04-8.802381046280e-11 0.000000000000e+00
     1.000000000000e+00-1.801875000000e+02 9.400391564041e-10-9.993907859406e-01
    -5.738344043493e-06 2.385408151895e-05 2.573011443019e-05 6.493337451935e+03
     4.752000000000e+05 1.043081283569e-07 2.017523489380e-02-3.166496753693e-08
     7.219239882890e-02-7.822968750000e+02-1.043241129238e+00 1.778645516296e-10
     3.800158291846e-10 0.000000000000e+00 4.230000000000e+02 0.000000000000e+00
     2.000000000000e+00 0.000000000000e+00 2.600000000000e-09-8.700000000000e-09
     4.752000000000e+05 0.000000000000e+00                                      
C05 2014 02 14 13 00 00-8.005062118173e-04-8.818545893519e-11 0.000000000000e+00
     1.000000000000e+00 3.524687500000e+02 2.727970773790e-09-6.550298793666e-01
     1.169694587588e-05 2.715422306210e-05 2.499949187040e-05 6.493346860886e+03
     4.788000000000e+05 1.029111444950e-07 3.399954449178e-01-7.916241884232e-08
     7.113602275802e-02-7.650625000000e+02-1.444713476950e+00-1.676141246582e-09
     3.921591921473e-10 0.000000000000e+00 4.230000000000e+02 0.000000000000e+00
     2.000000000000e+00 0.000000000000e+00 2.600000000000e-09-8.700000000000e-09
     4.788000000000e+05 0.000000000000e+00                                      
C05 2014 02 14 14 00 00-8.008232107386e-04-8.810996376951e-11 0.000000000000e+00
     1.000000000000e+00 7.943750000000e+02 4.463043046514e-09-3.430143724054e-01
     2.602115273476e-05 3.308826126158e-05 1.422083005309e-05 6.493361602783e+03
     4.824000000000e+05 6.798654794693e-08 6.618550080949e-01-1.173466444016e-07
     7.142703227402e-02-4.403437500000e+02-1.815877219558e+00-3.514074946755e-09
     3.614436270064e-10 0.000000000000e+00 4.230000000000e+02 0.000000000000e+00
     2.000000000000e+00 0.000000000000e+00 2.600000000000e-09-8.700000000000e-09
     4.824000000000e+05 0.000000000000e+00                                      
C05 2014 02 14 15 00 00-8.011396275833e-04-8.800871142967e-11 0.000000000000e+00
     1.000000000000e+00 9.526875000000e+02 5.861315575892e-09-8.522911136888e-02
     3.099907189608e-05 3.855198156089e-05-3.023073077202e-06 6.493374774933e+03
     4.860000000000e+05 1.536682248116e-08 9.787092131557e-01-1.229345798492e-07
     7.302965464111e-02 8.590625000000e+01-2.127816692815e+00-5.004851329290e-09
     2.903692379014e-10 0.000000000000e+00 4.230000000000e+02 0.000000000000e+00
     2.000000000000e+00 0.000000000000e+00 2.600000000000e-09-8.700000000000e-09
     4.860000000000e+05 0.000000000000e+00                                      
C05 2014 02 14 16 00 00-8.014568593353e-04-8.807887752482e-11 0.000000000000e+00
     1.000000000000e+00 7.507187500000e+02 6.742423706154e-09 1.641821929959e-01
     2.427864819765e-05 4.048633854836e-05-2.001691609621e-05 6.493379594803e+03
     4.896000000000e+05-3.213062882423e-08 1.284840565167e+00-9.406358003616e-08
     7.575611700921e-02 6.094843750000e+02-2.420682909331e+00-5.919889444300e-09
     1.864363372504e-10 0.000000000000e+00 4.230000000000e+02 0.000000000000e+00
     2.000000000000e+00 0.000000000000e+00 2.600000000000e-09-8.700000000000e-09
     4.896300000000e+05 0.000000000000e+00                                      
C05 2014 02 14 17 00 00-8.017738582566e-04-8.806200213485e-11 0.000000000000e+00
     1.000000000000e+00 2.676093750000e+02 7.070651663880e-09 4.585779357146e-01
     8.556526154280e-06 3.858201671392e-05-3.038113936782e-05 6.493374090195e+03
     4.932000000000e+05-5.401670932770e-08 1.576981127502e+00-4.470348358154e-08
     7.931586629277e-02 9.326250000000e+02-2.744575766254e+00-6.207401420328e-09
     6.285976121851e-11 0.000000000000e+00 4.230000000000e+02 0.000000000000e+00
     2.000000000000e+00 0.000000000000e+00 2.600000000000e-09-8.700000000000e-09
     4.932000000000e+05 0.000000000000e+00                                      
C05 2014 02 14 18 00 00-8.020910900086e-04-8.808953566586e-11 0.000000000000e+00
     1.000000000000e+00-3.083906250000e+02 6.927074254733e-09 8.131002785817e-01
    -1.005688682199e-05 3.579957410693e-05-3.082957118750e-05 6.493363471985e+03
     4.968000000000e+05-3.445893526077e-08 1.854299618908e+00 1.396983861923e-09
     8.337604766705e-02 9.504218750000e+02-3.113812640944e+00-5.985249309658e-09
    -6.214544575012e-11 0.000000000000e+00 4.230000000000e+02 0.000000000000e+00
     2.000000000000e+00 0.000000000000e+00 2.600000000000e-09-8.700000000000e-09
     4.968000000000e+05 0.000000000000e+00                                      
C05 2014 02 14 19 00 00-8.024085545912e-04-8.813128005158e-11 0.000000000000e+00
     1.000000000000e+00-7.731406250000e+02 6.373122608995e-09 1.149416281185e+00
    -2.505723387003e-05 3.483612090349e-05-2.188328653574e-05 6.493356784821e+03
     5.004000000000e+05 2.793967723846e-09 2.117695289275e+00 2.095475792885e-08
     8.760948096654e-02 6.760000000000e+02 2.832221151619e+00-5.382367054335e-09
    -1.810789712374e-10 0.000000000000e+00 4.230000000000e+02 0.000000000000e+00
     2.000000000000e+00 0.000000000000e+00 2.600000000000e-09-8.700000000000e-09
     5.004000000000e+05 0.000000000000e+00                                      
C05 2014 02 14 20 00 00-8.027266012505e-04-8.823519692669e-11 0.000000000000e+00
     1.000000000000e+00-9.909531250000e+02 5.545945296597e-09 1.376143675828e+00
    -3.215298056602e-05 3.485323395580e-05-6.935559213161e-06 6.493359796524e+03
     5.040000000000e+05 5.215406417847e-08 2.368992236527e+00 5.587935447693e-09
     9.172228057829e-02 2.138437500000e+02 2.616710363896e+00-4.578762152394e-09
    -2.800116636097e-10 0.000000000000e+00 4.230000000000e+02 0.000000000000e+00
     2.000000000000e+00 0.000000000000e+00 2.600000000000e-09-8.700000000000e-09
     5.040300000000e+05 0.000000000000e+00                                      
C05 2014 02 14 21 00 00-8.030438330024e-04-8.818190622151e-11 0.000000000000e+00
     1.000000000000e+00-9.370468750000e+02 4.566261631697e-09 1.523572068698e+00
    -3.053480759263e-05 3.431644290686e-05 9.308569133282e-06 6.493369468689e+03
     5.076000000000e+05 8.661299943924e-08 2.610353398211e+00-3.771856427193e-08
     9.546569044920e-02-2.886562500000e+02 2.490386802584e+00-3.673010138473e-09
    -3.571577341961e-10 0.000000000000e+00 4.230000000000e+02 0.000000000000e+00
     2.000000000000e+00 0.000000000000e+00 2.600000000000e-09-8.700000000000e-09
     5.076000000000e+05 0.000000000000e+00                                      
C05 2014 02 14 22 00 00-8.033621124923e-04-8.830092212975e-11 0.000000000000e+00
     1.000000000000e+00-6.763906250000e+02 3.573005972898e-09 1.699174629695e+00
    -2.220692113042e-05 3.347126767039e-05 2.248352393508e-05 6.493376840591e+03
     5.112000000000e+05 9.732320904732e-08 2.843950871203e+00-8.800998330116e-08
     9.863856226919e-02-6.943750000000e+02 2.343607591315e+00-2.737256874879e-09
    -4.093027633887e-10 0.000000000000e+00 4.230000000000e+02 0.000000000000e+00
     2.000000000000e+00 0.000000000000e+00 2.600000000000e-09-8.700000000000e-09
     5.112000000000e+05 0.000000000000e+00                                      
C05 2014 02 14 23 00 00-8.036800427362e-04-8.830269848659e-11 0.000000000000e+00
     1.000000000000e+00-3.086562500000e+02 2.689040580762e-09 1.982270769763e+00
    -1.030787825584e-05 3.393203951418e-05 2.976879477501e-05 6.493374835968e+03
     5.148000000000e+05 1.010484993458e-07 3.071826137203e+00-1.247972249985e-07
     1.010859408295e-01-9.156718750000e+02 2.095018736568e+00-1.843291066186e-09
    -4.307322274405e-10 0.000000000000e+00 4.230000000000e+02 0.000000000000e+00
     2.000000000000e+00 0.000000000000e+00 2.600000000000e-09-8.700000000000e-09
     5.148000000000e+05 0.000000000000e+00                                      
C06 2014 02 13 23 00 00-1.898525515571e-04-2.005773325209e-11 0.000000000000e+00
     1.000000000000e+00 2.341406250000e+02 1.811146870108e-09-2.394405718781e+00
     7.577706128359e-06 3.315186593682e-03 2.752058207989e-06 6.493430065155e+03
     4.284000000000e+05-2.607703208923e-08 1.162692673834e+00 3.306195139885e-08
     9.499074341546e-01 1.638906250000e+02-3.110065882453e+00-2.395099765519e-09
     7.825325956236e-10 0.000000000000e+00 4.230000000000e+02 0.000000000000e+00
     2.000000000000e+00 0.000000000000e+00 9.300000000000e-09-1.400000000000e-09
     4.284000000000e+05 0.000000000000e+00                                      
C06 2014 02 14 00 00 00-1.899240305647e-04-1.996269816118e-11 0.000000000000e+00
     1.000000000000e+00 2.457968750000e+02 1.769359415207e-09-2.131495018923e+00
     7.854308933020e-06 3.314566682093e-03 3.005843609571e-06 6.493433523178e+03
     4.320000000000e+05-4.936009645462e-08 1.162684150873e+00 2.421438694000e-08
     9.499102985482e-01 1.532343750000e+02-3.110458033736e+00-2.390099557240e-09
     7.732464945345e-10 0.000000000000e+00 4.230000000000e+02 0.000000000000e+00
     2.000000000000e+00 0.000000000000e+00 9.300000000000e-09-1.400000000000e-09
     4.320000000000e+05 0.000000000000e+00                                      
